{
"type": "FeatureCollection",
"name": "maechan_boundary",
"crs": { "type": "name", "properties": { "name": "urn:ogc:def:crs:OGC:1.3:CRS84" } },
"features": [
{ "type": "Feature", "properties": { }, "geometry": { "type": "Polygon", "coordinates": [ [ [ 99.867295717300806, 20.161943148023404 ], [ 99.866929065680139, 20.161132731713618 ], [ 99.866886717356095, 20.161039147999695 ], [ 99.866854891270862, 20.160835346425834 ], [ 99.86641094882458, 20.160243409532786 ], [ 99.864461242488218, 20.157305414262368 ], [ 99.860379511649143, 20.151811943805679 ], [ 99.860042633402159, 20.149989790500605 ], [ 99.858736601353172, 20.142016461567426 ], [ 99.858753660079444, 20.140112685653431 ], [ 99.858608136826689, 20.139541669339799 ], [ 99.85866190496634, 20.13879442502617 ], [ 99.861868944462501, 20.135842671355757 ], [ 99.866756532712643, 20.129037628847776 ], [ 99.862429140814299, 20.127868646716632 ], [ 99.852129217140046, 20.143107313701851 ], [ 99.851774798181026, 20.143667309038356 ], [ 99.851500874994386, 20.144090817443352 ], [ 99.85151698356502, 20.144380777093154 ], [ 99.851684327586071, 20.144745518634075 ], [ 99.851743426035455, 20.144920285206826 ], [ 99.851767157359376, 20.145275423465808 ], [ 99.851823309996121, 20.145577202864025 ], [ 99.85184405251421, 20.145716114616345 ], [ 99.851792674534394, 20.145960063032678 ], [ 99.85179708089322, 20.146102486140389 ], [ 99.85189849659271, 20.146373155127794 ], [ 99.852062144252855, 20.146725900621664 ], [ 99.852143785554659, 20.147036137574887 ], [ 99.852124240126258, 20.147453268039296 ], [ 99.852004607970358, 20.147845139487202 ], [ 99.851928718887677, 20.148260826133978 ], [ 99.851893816356394, 20.148527005439082 ], [ 99.851824795645271, 20.148868862346792 ], [ 99.851800870672164, 20.149148718131979 ], [ 99.851872710370984, 20.149326855318755 ], [ 99.852104336997471, 20.149480193051055 ], [ 99.852437925033641, 20.149669077340178 ], [ 99.852619975013695, 20.149728263382123 ], [ 99.852785139081533, 20.149689707751619 ], [ 99.852871947497661, 20.149612058737187 ], [ 99.852996908530642, 20.149532508789196 ], [ 99.853151243395502, 20.14950773482083 ], [ 99.853385918801834, 20.149552935678884 ], [ 99.85357978596322, 20.14978025072995 ], [ 99.85373221138515, 20.150072981806186 ], [ 99.85394504492271, 20.150446081173211 ], [ 99.854177290876251, 20.150712681975882 ], [ 99.854358523846386, 20.150955503072858 ], [ 99.854386631839489, 20.151111540591494 ], [ 99.85426762593876, 20.151283737229424 ], [ 99.853941390389352, 20.151386678960826 ], [ 99.853756104360997, 20.151403787006362 ], [ 99.853574286377352, 20.151427361933031 ], [ 99.853358368755053, 20.15149324715706 ], [ 99.853186170401685, 20.15158931184358 ], [ 99.853096136549951, 20.15174248927304 ], [ 99.853124178242126, 20.151886513962964 ], [ 99.85325644731472, 20.15214845141988 ], [ 99.853424391119759, 20.152286649843102 ], [ 99.853635893805262, 20.152414339869491 ], [ 99.8539055495757, 20.152541747779356 ], [ 99.854224020260887, 20.152622581298846 ], [ 99.854425821676841, 20.152637048472826 ], [ 99.85472434944262, 20.152726558767661 ], [ 99.854889865174655, 20.153086156694471 ], [ 99.85494910140666, 20.153284947882625 ], [ 99.855066238690398, 20.153437120752521 ], [ 99.855359036161587, 20.15347517186607 ], [ 99.855603995573915, 20.15340533454815 ], [ 99.855864964382107, 20.153271919910058 ], [ 99.85605482507593, 20.153095945567276 ], [ 99.856179366259099, 20.152939166627483 ], [ 99.856285463204372, 20.15273270760207 ], [ 99.85635752746667, 20.1526173722722 ], [ 99.856518656647168, 20.152505036321223 ], [ 99.856776896381874, 20.15253810454573 ], [ 99.856963091197827, 20.152689940274517 ], [ 99.857111694689863, 20.152946646548955 ], [ 99.857203138267025, 20.153385547416686 ], [ 99.857252466427155, 20.153766302536564 ], [ 99.857359854496138, 20.154129613120979 ], [ 99.857427084656933, 20.154460511384215 ], [ 99.857392218638367, 20.154731839750472 ], [ 99.857279086862903, 20.154981238480627 ], [ 99.857201963679316, 20.155168678938328 ], [ 99.857079772874314, 20.15542327021226 ], [ 99.857027229251486, 20.155785642795145 ], [ 99.857439027760336, 20.155982717304582 ], [ 99.857842770780408, 20.156035669776166 ], [ 99.858027424175503, 20.155904339717942 ], [ 99.857992875413061, 20.155568134038091 ], [ 99.857994954071785, 20.155283235752986 ], [ 99.858234463043516, 20.155213421283676 ], [ 99.858718203106136, 20.155272846817404 ], [ 99.859053243705674, 20.155391346802642 ], [ 99.85916048698401, 20.155727197669922 ], [ 99.859010235581337, 20.156167275914278 ], [ 99.858593866994156, 20.15646449113121 ], [ 99.858334742859569, 20.156935990965923 ], [ 99.85854785972009, 20.1573571358742 ], [ 99.858941190598131, 20.157499378482537 ], [ 99.859264393376392, 20.157446316317664 ], [ 99.859803205321612, 20.157605009137331 ], [ 99.860266141568701, 20.15784644810552 ], [ 99.860591450752736, 20.15817780029662 ], [ 99.860811995227976, 20.158626364943281 ], [ 99.861199360387175, 20.159005465967851 ], [ 99.861479833892332, 20.159113930625509 ], [ 99.861774526386313, 20.159163974733026 ], [ 99.862207243179228, 20.15919618080294 ], [ 99.862494968202355, 20.159301175925862 ], [ 99.862535967729627, 20.15948632381885 ], [ 99.862482597014434, 20.159695960531092 ], [ 99.862373236842174, 20.159969370464356 ], [ 99.862160164396585, 20.160220977577097 ], [ 99.861683899720603, 20.16036802945391 ], [ 99.861401412198916, 20.160389444642622 ], [ 99.861109118246915, 20.160445792145211 ], [ 99.860932987582871, 20.160540283888498 ], [ 99.860880085551202, 20.160910123052457 ], [ 99.860999174370718, 20.16134071781228 ], [ 99.860867329385115, 20.161714184973359 ], [ 99.861020803050451, 20.162154337302677 ], [ 99.861293717311582, 20.162477147698681 ], [ 99.861585410739508, 20.162873501257533 ], [ 99.86166033320373, 20.162975308360153 ], [ 99.862012717249925, 20.163454147739291 ], [ 99.862617535545041, 20.163380209599865 ], [ 99.86274071725002, 20.163365147778652 ], [ 99.86303975607396, 20.163224073113067 ], [ 99.863407555701343, 20.163050552192221 ], [ 99.863809717268396, 20.162920147835916 ], [ 99.863851717270407, 20.162880147838134 ], [ 99.863937150729981, 20.162838436944625 ], [ 99.865442526291702, 20.162476518939194 ], [ 99.865965956960679, 20.162338478528067 ], [ 99.867295717300806, 20.161943148023404 ] ] ] } },
{ "type": "Feature", "properties": { }, "geometry": null },
{ "type": "Feature", "properties": { }, "geometry": null }
]
}
